[{"OBJECT_NAME":"STARLINK-1068","OBJECT_ID":"2019-074BM","EPOCH":"2026-03-19T15:36:57.831840","MEAN_MOTION":15.65228829,"ECCENTRICITY":0.0003888,"INCLINATION":53.046,"RA_OF_ASC_NODE":131.0237,"ARG_OF_PERICENTER":345.8886,"MEAN_ANOMALY":14.202,"EPHEMERIS_TYPE":0,"CLASSIFICATION_TYPE":"U","NORAD_CAT_ID":44772,"ELEMENT_SET_NO":999,"REV_AT_EPOCH":35040,"BSTAR":0.00035316,"MEAN_MOTION_DOT":0.00035266,"MEAN_MOTION_DDOT":0},{"OBJECT_NAME":"STARLINK-1114","OBJECT_ID":"2020-001P","EPOCH":"2026-03-19T20:36:29.149344","MEAN_MOTION":15.52044865,"ECCENTRICITY":0.0006989,"INCLINATION":53.0482,"RA_OF_ASC_NODE":280.4787,"ARG_OF_PERICENTER":158.3677,"MEAN_ANOMALY":201.7628,"EPHEMERIS_TYPE":0,"CLASSIFICATION_TYPE":"U","NORAD_CAT_ID":44927,"ELEMENT_SET_NO":999,"REV_AT_EPOCH":34167,"BSTAR":0.001152,"MEAN_MOTION_DOT":0.00070854,"MEAN_MOTION_DDOT":0},{"OBJECT_NAME":"STARLINK-1123","OBJECT_ID":"2020-001S","EPOCH":"2026-03-19T20:05:01.685184","MEAN_MOTION":15.29040398,"ECCENTRICITY":8.14e-5,"INCLINATION":53.1467,"RA_OF_ASC_NODE":298.0773,"ARG_OF_PERICENTER":62.1373,"MEAN_ANOMALY":297.9709,"EPHEMERIS_TYPE":0,"CLASSIFICATION_TYPE":"U","NORAD_CAT_ID":44930,"ELEMENT_SET_NO":999,"REV_AT_EPOCH":34142,"BSTAR":0.0014936,"MEAN_MOTION_DOT":0.00042572,"MEAN_MOTION_DDOT":0},{"OBJECT_NAME":"STARLINK-1094","OBJECT_ID":"2020-001AD","EPOCH":"2026-03-19T17:48:23.984928","MEAN_MOTION":15.30193225,"ECCENTRICITY":0.0001314,"INCLINATION":53.1599,"RA_OF_ASC_NODE":272.8694,"ARG_OF_PERICENTER":85.0514,"MEAN_ANOMALY":275.0637,"EPHEMERIS_TYPE":0,"CLASSIFICATION_TYPE":"U","NORAD_CAT_ID":44941,"ELEMENT_SET_NO":999,"REV_AT_EPOCH":34177,"BSTAR":0.00010776,"MEAN_MOTION_DOT":2.833e-5,"MEAN_MOTION_DDOT":0},{"OBJECT_NAME":"STARLINK-1122","OBJECT_ID":"2020-001AM","EPOCH":"2026-03-19T18:26:21.571872","MEAN_MOTION":15.30200371,"ECCENTRICITY":0.0001261,"INCLINATION":53.1595,"RA_OF_ASC_NODE":272.7949,"ARG_OF_PERICENTER":84.5907,"MEAN_ANOMALY":275.5237,"EPHEMERIS_TYPE":0,"CLASSIFICATION_TYPE":"U","NORAD_CAT_ID":44949,"ELEMENT_SET_NO":999,"REV_AT_EPOCH":34177,"BSTAR":9.679e-5,"MEAN_MOTION_DOT":2.508e-5,"MEAN_MOTION_DDOT":0},{"OBJECT_NAME":"STARLINK-1080","OBJECT_ID":"2020-001AZ","EPOCH":"2026-03-19T16:29:26.673792","MEAN_MOTION":15.48936204,"ECCENTRICITY":0.0005094,"INCLINATION":53.051,"RA_OF_ASC_NODE":240.3585,"ARG_OF_PERICENTER":155.2361,"MEAN_ANOMALY":204.8891,"EPHEMERIS_TYPE":0,"CLASSIFICATION_TYPE":"U","NORAD_CAT_ID":44961,"ELEMENT_SET_NO":999,"REV_AT_EPOCH":34222,"BSTAR":0.001171,"MEAN_MOTION_DOT":0.00064396,"MEAN_MOTION_DDOT":0},{"OBJECT_NAME":"STARLINK-1090","OBJECT_ID":"2020-001BG","EPOCH":"2026-03-19T20:52:36.699744","MEAN_MOTION":15.29362367,"ECCENTRICITY":0.0001514,"INCLINATION":53.1553,"RA_OF_ASC_NODE":259.2021,"ARG_OF_PERICENTER":93.141,"MEAN_ANOMALY":266.9764,"EPHEMERIS_TYPE":0,"CLASSIFICATION_TYPE":"U","NORAD_CAT_ID":44968,"ELEMENT_SET_NO":999,"REV_AT_EPOCH":34197,"BSTAR":0.00015462,"MEAN_MOTION_DOT":4.109e-5,"MEAN_MOTION_DDOT":0},{"OBJECT_NAME":"STARLINK-1132","OBJECT_ID":"2020-006A","EPOCH":"2026-03-19T18:08:21.887232","MEAN_MOTION":15.44429269,"ECCENTRICITY":0.00035,"INCLINATION":53.1555,"RA_OF_ASC_NODE":206.2113,"ARG_OF_PERICENTER":254.8846,"MEAN_ANOMALY":105.1774,"EPHEMERIS_TYPE":0,"CLASSIFICATION_TYPE":"U","NORAD_CAT_ID":45044,"ELEMENT_SET_NO":999,"REV_AT_EPOCH":33848,"BSTAR":0.0012994,"MEAN_MOTION_DOT":0.00061114,"MEAN_MOTION_DDOT":0},{"OBJECT_NAME":"STARLINK-1131","OBJECT_ID":"2020-006D","EPOCH":"2026-03-19T03:16:44.748192","MEAN_MOTION":15.30189097,"ECCENTRICITY":0.00010036,"INCLINATION":53.1574,"RA_OF_ASC_NODE":237.0966,"ARG_OF_PERICENTER":93.1344,"MEAN_ANOMALY":266.9771,"EPHEMERIS_TYPE":0,"CLASSIFICATION_TYPE":"U","NORAD_CAT_ID":45047,"ELEMENT_SET_NO":999,"REV_AT_EPOCH":33799,"BSTAR":4.9687372e-5,"MEAN_MOTION_DOT":1.112e-5,"MEAN_MOTION_DDOT":0},{"OBJECT_NAME":"STARLINK-1134","OBJECT_ID":"2020-006E","EPOCH":"2026-03-19T14:11:24.228960","MEAN_MOTION":15.45301751,"ECCENTRICITY":0.0006206,"INCLINATION":53.0329,"RA_OF_ASC_NODE":191.1688,"ARG_OF_PERICENTER":219.2167,"MEAN_ANOMALY":140.839,"EPHEMERIS_TYPE":0,"CLASSIFICATION_TYPE":"U","NORAD_CAT_ID":45048,"ELEMENT_SET_NO":999,"REV_AT_EPOCH":33867,"BSTAR":0.00063285,"MEAN_MOTION_DOT":0.0003034,"MEAN_MOTION_DDOT":0},{"OBJECT_NAME":"STARLINK-1156","OBJECT_ID":"2020-006L","EPOCH":"2026-03-19T18:01:08.825376","MEAN_MOTION":15.30202455,"ECCENTRICITY":0.0001226,"INCLINATION":53.1606,"RA_OF_ASC_NODE":234.2611,"ARG_OF_PERICENTER":86.6097,"MEAN_ANOMALY":273.5044,"EPHEMERIS_TYPE":0,"CLASSIFICATION_TYPE":"U","NORAD_CAT_ID":45054,"ELEMENT_SET_NO":999,"REV_AT_EPOCH":33808,"BSTAR":-8.5389e-5,"MEAN_MOTION_DOT":-2.887e-5,"MEAN_MOTION_DDOT":0},{"OBJECT_NAME":"STARLINK-1159","OBJECT_ID":"2020-006P","EPOCH":"2026-03-19T20:00:01.999008","MEAN_MOTION":15.85002015,"ECCENTRICITY":0.0001443,"INCLINATION":53.0434,"RA_OF_ASC_NODE":183.6024,"ARG_OF_PERICENTER":8.4239,"MEAN_ANOMALY":227.413,"EPHEMERIS_TYPE":0,"CLASSIFICATION_TYPE":"U","NORAD_CAT_ID":45057,"ELEMENT_SET_NO":999,"REV_AT_EPOCH":576,"BSTAR":0.00055425,"MEAN_MOTION_DOT":0.00134199,"MEAN_MOTION_DDOT":0},{"OBJECT_NAME":"STARLINK-1166","OBJECT_ID":"2020-006S","EPOCH":"2026-03-19T20:30:38.488032","MEAN_MOTION":15.46979324,"ECCENTRICITY":0.0002192,"INCLINATION":53.0514,"RA_OF_ASC_NODE":224.1942,"ARG_OF_PERICENTER":201.0592,"MEAN_ANOMALY":159.0325,"EPHEMERIS_TYPE":0,"CLASSIFICATION_TYPE":"U","NORAD_CAT_ID":45060,"ELEMENT_SET_NO":999,"REV_AT_EPOCH":33823,"BSTAR":0.0013192,"MEAN_MOTION_DOT":0.00067802,"MEAN_MOTION_DDOT":0},{"OBJECT_NAME":"STARLINK-1169","OBJECT_ID":"2020-006T","EPOCH":"2026-03-19T17:13:56.908128","MEAN_MOTION":15.30284411,"ECCENTRICITY":0.0001124,"INCLINATION":53.1587,"RA_OF_ASC_NODE":234.4105,"ARG_OF_PERICENTER":70.7852,"MEAN_ANOMALY":289.327,"EPHEMERIS_TYPE":0,"CLASSIFICATION_TYPE":"U","NORAD_CAT_ID":45061,"ELEMENT_SET_NO":999,"REV_AT_EPOCH":33808,"BSTAR":0.00035148,"MEAN_MOTION_DOT":0.00010092,"MEAN_MOTION_DDOT":0},{"OBJECT_NAME":"STARLINK-1171","OBJECT_ID":"2020-006U","EPOCH":"2026-03-18T18:48:11.736288","MEAN_MOTION":15.64661075,"ECCENTRICITY":0.00021169,"INCLINATION":53.0441,"RA_OF_ASC_NODE":204.8794,"ARG_OF_PERICENTER":12.9882,"MEAN_ANOMALY":347.1187,"EPHEMERIS_TYPE":0,"CLASSIFICATION_TYPE":"U","NORAD_CAT_ID":45062,"ELEMENT_SET_NO":999,"REV_AT_EPOCH":33841,"BSTAR":0.00045860839,"MEAN_MOTION_DOT":0.00044972,"MEAN_MOTION_DDOT":0},{"OBJECT_NAME":"STARLINK-1133","OBJECT_ID":"2020-006W","EPOCH":"2026-03-19T15:48:23.828832","MEAN_MOTION":15.30214651,"ECCENTRICITY":7.94e-5,"INCLINATION":53.1615,"RA_OF_ASC_NODE":211.4947,"ARG_OF_PERICENTER":41.3822,"MEAN_ANOMALY":318.7239,"EPHEMERIS_TYPE":0,"CLASSIFICATION_TYPE":"U","NORAD_CAT_ID":45064,"ELEMENT_SET_NO":999,"REV_AT_EPOCH":33840,"BSTAR":-0.00010019,"MEAN_MOTION_DOT":-3.326e-5,"MEAN_MOTION_DDOT":0}]
