STARLINK-1068           
1 44772U 19074BM  26078.65066935  .00035266  00000+0  35316-3 0  9990
2 44772  53.0460 131.0237 0003888 345.8886  14.2020 15.65228829350409
STARLINK-1114           
1 44927U 20001P   26078.85867071  .00070854  00000+0  11520-2 0  9998
2 44927  53.0482 280.4787 0006989 158.3677 201.7628 15.52044865341672
STARLINK-1123           
1 44930U 20001S   26078.83682506  .00042572  00000+0  14936-2 0  9998
2 44930  53.1467 298.0773 0000814  62.1373 297.9709 15.29040398341427
STARLINK-1094           
1 44941U 20001AD  26078.74194427  .00002833  00000+0  10776-3 0  9995
2 44941  53.1599 272.8694 0001314  85.0514 275.0637 15.30193225341779
STARLINK-1122           
1 44949U 20001AM  26078.76830523  .00002508  00000+0  96790-4 0  9999
2 44949  53.1595 272.7949 0001261  84.5907 275.5237 15.30200371341778
STARLINK-1080           
1 44961U 20001AZ  26078.68711428  .00064396  00000+0  11710-2 0  9996
2 44961  53.0510 240.3585 0005094 155.2361 204.8891 15.48936204342225
STARLINK-1090           
1 44968U 20001BG  26078.86986921  .00004109  00000+0  15462-3 0  9990
2 44968  53.1553 259.2021 0001514  93.1410 266.9764 15.29362367341973
STARLINK-1132           
1 45044U 20006A   26078.75580888  .00061114  00000+0  12994-2 0  9996
2 45044  53.1555 206.2113 0003500 254.8846 105.1774 15.44429269338480
STARLINK-1131           
1 45047U 20006D   26078.13662903  .00001112  00000+0  49687-4 0  9993
2 45047  53.1574 237.0966 0001003  93.1344 266.9771 15.30189097337990
STARLINK-1134           
1 45048U 20006E   26078.59125265  .00030340  00000+0  63285-3 0  9993
2 45048  53.0329 191.1688 0006206 219.2167 140.8390 15.45301751338675
STARLINK-1156           
1 45054U 20006L   26078.75079659 -.00002887  00000+0 -85389-4 0  9990
2 45054  53.1606 234.2611 0001226  86.6097 273.5044 15.30202455338081
STARLINK-1159           
1 45057U 20006P   26078.83335647  .00134199  00000+0  55425-3 0  9991
2 45057  53.0434 183.6024 0001443   8.4239 227.4130 15.85002015  5768
STARLINK-1166           
1 45060U 20006S   26078.85461213  .00067802  00000+0  13192-2 0  9996
2 45060  53.0514 224.1942 0002192 201.0592 159.0325 15.46979324338236
STARLINK-1169           
1 45061U 20006T   26078.71801977  .00010092  00000+0  35148-3 0  9992
2 45061  53.1587 234.4105 0001124  70.7852 289.3270 15.30284411338085
STARLINK-1171           
1 45062U 20006U   26077.78346917  .00044972  00000+0  45861-3 0  9994
2 45062  53.0441 204.8794 0002116  12.9882 347.1187 15.64661075338411
STARLINK-1133           
1 45064U 20006W   26078.65860913 -.00003326  00000+0 -10019-3 0  9997
2 45064  53.1615 211.4947 0000794  41.3822 318.7239 15.30214651338409
